[{"OBJECT_NAME":"OBJECT C","OBJECT_ID":"2024-105C","EPOCH":"2026-03-09T23:58:12.857088","MEAN_MOTION":15.19285938,"ECCENTRICITY":0.00116684,"INCLINATION":97.5862,"RA_OF_ASC_NODE":85.5433,"ARG_OF_PERICENTER":201.9597,"MEAN_ANOMALY":158.1139,"EPHEMERIS_TYPE":0,"CLASSIFICATION_TYPE":"U","NORAD_CAT_ID":59919,"ELEMENT_SET_NO":999,"REV_AT_EPOCH":9810,"BSTAR":0.00030616598,"MEAN_MOTION_DOT":6.401e-5,"MEAN_MOTION_DDOT":0},{"OBJECT_NAME":"FOSSASAT-2E22","OBJECT_ID":"2025-276DU","EPOCH":"2026-03-09T17:31:32.157120","MEAN_MOTION":15.17702542,"ECCENTRICITY":0.00067992,"INCLINATION":97.4248,"RA_OF_ASC_NODE":143.8392,"ARG_OF_PERICENTER":122.1987,"MEAN_ANOMALY":237.9907,"EPHEMERIS_TYPE":0,"CLASSIFICATION_TYPE":"U","NORAD_CAT_ID":66779,"ELEMENT_SET_NO":999,"REV_AT_EPOCH":1531,"BSTAR":0.00072006119,"MEAN_MOTION_DOT":0.00014475,"MEAN_MOTION_DDOT":0}]
